[
    {
        "Altitude(m)": 607897.6087586051,
        "Argument of Periapsis(deg)": 0.0,
        "Eccentricity": 0.0,
        "Inclination(deg)": 60.0,
        "Latitude(deg)": -14.292901386536547,
        "Longitude(deg)": 131.6187422050153,
        "Mean Anomaly(deg)": -16.363600000000037,
        "RAAN(deg)": 240.0,
        "Satellite Name": "Test1 1077",
        "Satellite Number": 1077,
        "Semi-Major Axis(m)": 6980739.136638005,
        "Time(s)": 0
    },
    {
        "Altitude(m)": 607750.8102906035,
        "Argument of Periapsis(deg)": 0.00010418945913296404,
        "Eccentricity": 0.0,
        "Inclination(deg)": 60.0,
        "Latitude(deg)": -13.75874304216348,
        "Longitude(deg)": 131.9058115934121,
        "Mean Anomaly(deg)": -15.743493854538185,
        "RAAN(deg)": 239.99957995086024,
        "Satellite Name": "Test1 1077",
        "Satellite Number": 1077,
        "Semi-Major Axis(m)": 6980739.136638005,
        "Time(s)": 10
    },
    {
        "Altitude(m)": 607606.5361057295,
        "Argument of Periapsis(deg)": 0.0002083789182659281,
        "Eccentricity": 0.0,
        "Inclination(deg)": 60.0,
        "Latitude(deg)": -13.224109950289476,
        "Longitude(deg)": 132.1914045838071,
        "Mean Anomaly(deg)": -15.12338770907633,
        "RAAN(deg)": 239.99915990172047,
        "Satellite Name": "Test1 1077",
        "Satellite Number": 1077,
        "Semi-Major Axis(m)": 6980739.136638005,
        "Time(s)": 20
    },
    {
        "Altitude(m)": 607464.8305760071,
        "Argument of Periapsis(deg)": 0.00031256837739889213,
        "Eccentricity": 0.0,
        "Inclination(deg)": 60.0,
        "Latitude(deg)": -12.689022415464992,
        "Longitude(deg)": 132.47558585552508,
        "Mean Anomaly(deg)": -14.503281563614529,
        "RAAN(deg)": 239.99873985258077,
        "Satellite Name": "Test1 1077",
        "Satellite Number": 1077,
        "Semi-Major Axis(m)": 6980739.136638005,
        "Time(s)": 30
    },
    {
        "Altitude(m)": 607325.7367963805,
        "Argument of Periapsis(deg)": 0.0004167578365318562,
        "Eccentricity": 0.0,
        "Inclination(deg)": 60.0,
        "Latitude(deg)": -12.153500469695217,
        "Longitude(deg)": 132.75841974524232,
        "Mean Anomaly(deg)": -13.883175418152675,
        "RAAN(deg)": 239.99831980344103,
        "Satellite Name": "Test1 1077",
        "Satellite Number": 1077,
        "Semi-Major Axis(m)": 6980739.136638005,
        "Time(s)": 40
    },
    {
        "Altitude(m)": 607189.2965663827,
        "Argument of Periapsis(deg)": 0.0005209472956648203,
        "Eccentricity": 0.0,
        "Inclination(deg)": 60.0,
        "Latitude(deg)": -11.617563886380722,
        "Longitude(deg)": 133.03996927852046,
        "Mean Anomaly(deg)": -13.26306927269082,
        "RAAN(deg)": 239.99789975430127,
        "Satellite Name": "Test1 1077",
        "Satellite Number": 1077,
        "Semi-Major Axis(m)": 6980739.136638005,
        "Time(s)": 50
    },
    {
        "Altitude(m)": 607055.5503724633,
        "Argument of Periapsis(deg)": 0.0006251367547977843,
        "Eccentricity": 0.0,
        "Inclination(deg)": 60.0,
        "Latitude(deg)": -11.081232193903865,
        "Longitude(deg)": 133.3202967135366,
        "Mean Anomaly(deg)": -12.642963127229072,
        "RAAN(deg)": 239.9974797051615,
        "Satellite Name": "Test1 1077",
        "Satellite Number": 1077,
        "Semi-Major Axis(m)": 6980739.136638005,
        "Time(s)": 60
    },
    {
        "Altitude(m)": 606924.537370906,
        "Argument of Periapsis(deg)": 0.0007293262139307483,
        "Eccentricity": 0.0,
        "Inclination(deg)": 60.0,
        "Latitude(deg)": -10.544524688878564,
        "Longitude(deg)": 133.59946408416658,
        "Mean Anomaly(deg)": -12.022856981767166,
        "RAAN(deg)": 239.9970596560218,
        "Satellite Name": "Test1 1077",
        "Satellite Number": 1077,
        "Semi-Major Axis(m)": 6980739.136638005,
        "Time(s)": 70
    },
    {
        "Altitude(m)": 606796.2953714618,
        "Argument of Periapsis(deg)": 0.0008335156730637124,
        "Eccentricity": 0.0,
        "Inclination(deg)": 60.0,
        "Latitude(deg)": -10.007460449081341,
        "Longitude(deg)": 133.87753222957582,
        "Mean Anomaly(deg)": -11.402750836305417,
        "RAAN(deg)": 239.99663960688207,
        "Satellite Name": "Test1 1077",
        "Satellite Number": 1077,
        "Semi-Major Axis(m)": 6980739.136638005,
        "Time(s)": 80
    },
    {
        "Altitude(m)": 606670.8608215493,
        "Argument of Periapsis(deg)": 0.0009377051321966765,
        "Eccentricity": 0.0,
        "Inclination(deg)": 60.0,
        "Latitude(deg)": -9.470058346082153,
        "Longitude(deg)": 134.1545613360944,
        "Mean Anomaly(deg)": -10.782644690843563,
        "RAAN(deg)": 239.9962195577423,
        "Satellite Name": "Test1 1077",
        "Satellite Number": 1077,
        "Semi-Major Axis(m)": 6980739.136638005,
        "Time(s)": 90
    },
    {
        "Altitude(m)": 606548.2687912191,
        "Argument of Periapsis(deg)": 0.0010418945913296407,
        "Eccentricity": 0.0,
        "Inclination(deg)": 60.0,
        "Latitude(deg)": -8.932337057594179,
        "Longitude(deg)": 134.43061147853115,
        "Mean Anomaly(deg)": -10.16253854538171,
        "RAAN(deg)": 239.99579950860254,
        "Satellite Name": "Test1 1077",
        "Satellite Number": 1077,
        "Semi-Major Axis(m)": 6980739.136638005,
        "Time(s)": 100
    },
    {
        "Altitude(m)": 606428.5529586839,
        "Argument of Periapsis(deg)": 0.0011460840504626045,
        "Eccentricity": 0.0,
        "Inclination(deg)": 60.0,
        "Latitude(deg)": -8.394315079555202,
        "Longitude(deg)": 134.70574164808374,
        "Mean Anomaly(deg)": -9.542432399919907,
        "RAAN(deg)": 239.99537945946284,
        "Satellite Name": "Test1 1077",
        "Satellite Number": 1077,
        "Semi-Major Axis(m)": 6980739.136638005,
        "Time(s)": 110
    },
    {
        "Altitude(m)": 606311.7455966404,
        "Argument of Periapsis(deg)": 0.0012502735095955685,
        "Eccentricity": 0.0,
        "Inclination(deg)": 60.0,
        "Latitude(deg)": -7.856010737961765,
        "Longitude(deg)": 134.98001029261988,
        "Mean Anomaly(deg)": -8.922326254458055,
        "RAAN(deg)": 239.9949594103231,
        "Satellite Name": "Test1 1077",
        "Satellite Number": 1077,
        "Semi-Major Axis(m)": 6980739.136638005,
        "Time(s)": 120
    },
    {
        "Altitude(m)": 606197.8775591752,
        "Argument of Periapsis(deg)": 0.0013544629687285324,
        "Eccentricity": 0.0,
        "Inclination(deg)": 60.0,
        "Latitude(deg)": -7.317442200471117,
        "Longitude(deg)": 135.25347585648618,
        "Mean Anomaly(deg)": -8.302220108996304,
        "RAAN(deg)": 239.99453936118334,
        "Satellite Name": "Test1 1077",
        "Satellite Number": 1077,
        "Semi-Major Axis(m)": 6980739.136638005,
        "Time(s)": 130
    },
    {
        "Altitude(m)": 606086.9782694258,
        "Argument of Periapsis(deg)": 0.0014586524278614966,
        "Eccentricity": 0.0,
        "Inclination(deg)": 60.0,
        "Latitude(deg)": -6.778627487783647,
        "Longitude(deg)": 135.52619580700073,
        "Mean Anomaly(deg)": -7.682113963534451,
        "RAAN(deg)": 239.99411931204355,
        "Satellite Name": "Test1 1077",
        "Satellite Number": 1077,
        "Semi-Major Axis(m)": 6980739.136638005,
        "Time(s)": 140
    },
    {
        "Altitude(m)": 605979.075707953,
        "Argument of Periapsis(deg)": 0.0015628418869944607,
        "Eccentricity": 0.0,
        "Inclination(deg)": 60.0,
        "Latitude(deg)": -6.2395844848268425,
        "Longitude(deg)": 135.79822717340485,
        "Mean Anomaly(deg)": -7.062007818072648,
        "RAAN(deg)": 239.99369926290387,
        "Satellite Name": "Test1 1077",
        "Satellite Number": 1077,
        "Semi-Major Axis(m)": 6980739.136638005,
        "Time(s)": 150
    },
    {
        "Altitude(m)": 605874.1964017581,
        "Argument of Periapsis(deg)": 0.0016670313461274247,
        "Eccentricity": 0.0,
        "Inclination(deg)": 60.0,
        "Latitude(deg)": -5.700330951752263,
        "Longitude(deg)": 136.06962708543034,
        "Mean Anomaly(deg)": -6.441901672610796,
        "RAAN(deg)": 239.99327921376414,
        "Satellite Name": "Test1 1077",
        "Satellite Number": 1077,
        "Semi-Major Axis(m)": 6980739.136638005,
        "Time(s)": 160
    },
    {
        "Altitude(m)": 605772.3654140778,
        "Argument of Periapsis(deg)": 0.0017712208052603888,
        "Eccentricity": 0.0,
        "Inclination(deg)": 60.0,
        "Latitude(deg)": -5.16088453476047,
        "Longitude(deg)": 136.34045179863895,
        "Mean Anomaly(deg)": -5.821795527148942,
        "RAAN(deg)": 239.99285916462435,
        "Satellite Name": "Test1 1077",
        "Satellite Number": 1077,
        "Semi-Major Axis(m)": 6980739.136638005,
        "Time(s)": 170
    },
    {
        "Altitude(m)": 605673.6063348601,
        "Argument of Periapsis(deg)": 0.001875410264393353,
        "Eccentricity": 0.0,
        "Inclination(deg)": 60.0,
        "Latitude(deg)": -4.621262776771002,
        "Longitude(deg)": 136.61075723230798,
        "Mean Anomaly(deg)": -5.201689381687089,
        "RAAN(deg)": 239.9924391154846,
        "Satellite Name": "Test1 1077",
        "Satellite Number": 1077,
        "Semi-Major Axis(m)": 6980739.136638005,
        "Time(s)": 180
    },
    {
        "Altitude(m)": 605577.9412719887,
        "Argument of Periapsis(deg)": 0.0019795997235263173,
        "Eccentricity": 0.0,
        "Inclination(deg)": 60.0,
        "Latitude(deg)": -4.08148312795082,
        "Longitude(deg)": 136.8805995070197,
        "Mean Anomaly(deg)": -4.581583236225287,
        "RAAN(deg)": 239.9920190663449,
        "Satellite Name": "Test1 1077",
        "Satellite Number": 1077,
        "Semi-Major Axis(m)": 6980739.136638005,
        "Time(s)": 190
    }
]